{
"type": "FeatureCollection",
"name": "goerlitz-niesky-loebau",
"crs": { "type": "name", "properties": { "name": "urn:ogc:def:crs:OGC:1.3:CRS84" } },
"features": [
{ "type": "Feature", "properties": { "id": "node/1459843579", "@id": "node/1459843579", "landuse": null, "social_facility": null, "addr:city": null, "addr:country": null, "addr:housenumber": null, "addr:postcode": null, "addr:street": null, "alt_name": null, "building": null, "contact:facebook": null, "contact:phone": null, "name": "BayWa", "opening_hours": null, "operator": null, "payment:cards": null, "payment:cash": null, "payment:contactless": null, "payment:credit_cards": null, "payment:debit_cards": null, "shop": "doityourself", "brand": "BayWa", "brand:wikidata": "Q812055", "building:levels": null, "phone": null, "roof:shape": null, "website": null, "wheelchair": null, "brand:wikipedia": null, "roof:levels": null, "email": null, "fax": null, "branch": "Niedercunnersdorf", "addr:city:simc": null, "source:addr": null, "amenity": null, "car_repair": null, "description": null, "workshop": null, "addr:suburb": null, "operator:type": null, "social_facility:for": null, "fablab": null, "leisure": null, "level": null, "service:3dprinter": null, "shop:woodwork": null, "website_1": null, "check_date:opening_hours": null, "opening_hours:signed": null, "bicycle_rental": null, "capacity": null, "service:lasercutter": null, "service:sewing_machine": null, "start_date": null, "tag": null, "contact:instagram": null, "mobile": null, "service:cnc_drilling_machine": null, "service:plotter": null, "fee": null, "phone:mobile": null, "rental": null, "wheelchair:description": null }, "geometry": { "type": "Point", "coordinates": [ 14.6365657, 51.0515733 ] } },
{ "type": "Feature", "properties": { "id": "node/3120720218", "@id": "node/3120720218", "landuse": null, "social_facility": null, "addr:city": "Niesky", "addr:country": null, "addr:housenumber": "4", "addr:postcode": "02906", "addr:street": "Jänkendorfer Straße", "alt_name": null, "building": null, "contact:facebook": null, "contact:phone": "+49 3588 25430", "name": "OBI", "opening_hours": "Mo-Fr 08:00-19:00; Sa 08:00-17:00; Su,PH off", "operator": null, "payment:cards": null, "payment:cash": null, "payment:contactless": null, "payment:credit_cards": null, "payment:debit_cards": null, "shop": "doityourself", "brand": "OBI", "brand:wikidata": "Q300518", "building:levels": null, "phone": null, "roof:shape": null, "website": null, "wheelchair": null, "brand:wikipedia": null, "roof:levels": null, "email": "niesky@obi.de", "fax": null, "branch": null, "addr:city:simc": null, "source:addr": null, "amenity": null, "car_repair": null, "description": null, "workshop": null, "addr:suburb": null, "operator:type": null, "social_facility:for": null, "fablab": null, "leisure": null, "level": null, "service:3dprinter": null, "shop:woodwork": null, "website_1": null, "check_date:opening_hours": null, "opening_hours:signed": null, "bicycle_rental": null, "capacity": null, "service:lasercutter": null, "service:sewing_machine": null, "start_date": null, "tag": null, "contact:instagram": null, "mobile": null, "service:cnc_drilling_machine": null, "service:plotter": null, "fee": null, "phone:mobile": null, "rental": null, "wheelchair:description": null }, "geometry": { "type": "Point", "coordinates": [ 14.8182694, 51.2872377 ] } },
{ "type": "Feature", "properties": { "id": "node/4363624844", "@id": "node/4363624844", "landuse": null, "social_facility": null, "addr:city": "Zgorzelec", "addr:country": null, "addr:housenumber": "41", "addr:postcode": "59-900", "addr:street": "Francuska", "alt_name": null, "building": null, "contact:facebook": null, "contact:phone": null, "name": "Kronex", "opening_hours": null, "operator": null, "payment:cards": null, "payment:cash": null, "payment:contactless": null, "payment:credit_cards": null, "payment:debit_cards": null, "shop": "doityourself", "brand": null, "brand:wikidata": null, "building:levels": null, "phone": null, "roof:shape": null, "website": null, "wheelchair": null, "brand:wikipedia": null, "roof:levels": null, "email": null, "fax": null, "branch": null, "addr:city:simc": null, "source:addr": null, "amenity": null, "car_repair": null, "description": null, "workshop": null, "addr:suburb": null, "operator:type": null, "social_facility:for": null, "fablab": null, "leisure": null, "level": null, "service:3dprinter": null, "shop:woodwork": null, "website_1": null, "check_date:opening_hours": null, "opening_hours:signed": null, "bicycle_rental": null, "capacity": null, "service:lasercutter": null, "service:sewing_machine": null, "start_date": null, "tag": null, "contact:instagram": null, "mobile": null, "service:cnc_drilling_machine": null, "service:plotter": null, "fee": null, "phone:mobile": null, "rental": null, "wheelchair:description": null }, "geometry": { "type": "Point", "coordinates": [ 15.0056766, 51.1336661 ] } },
{ "type": "Feature", "properties": { "id": "node/5556481348", "@id": "node/5556481348", "landuse": null, "social_facility": "office", "addr:city": "Niesky", "addr:country": "DE", "addr:housenumber": "23a", "addr:postcode": "02906", "addr:street": "Muskauer Straße", "alt_name": null, "building": null, "contact:facebook": null, "contact:phone": null, "name": "Flexibles Jugendmanagement", "opening_hours": null, "operator": "Jugendring Oberlausitz e.V.", "payment:cards": null, "payment:cash": null, "payment:contactless": null, "payment:credit_cards": null, "payment:debit_cards": null, "shop": null, "brand": null, "brand:wikidata": null, "building:levels": null, "phone": "+49 3588 2597377", "roof:shape": null, "website": "https://www.flexjuma.de/", "wheelchair": "no", "brand:wikipedia": null, "roof:levels": null, "email": "flexjuma@jugendring-oberlausitz.de", "fax": null, "branch": null, "addr:city:simc": null, "source:addr": null, "amenity": "social_facility", "car_repair": null, "description": null, "workshop": "fablab", "addr:suburb": null, "operator:type": null, "social_facility:for": "youth", "fablab": "yes", "leisure": "hackerspace", "level": "1", "service:3dprinter": "yes", "shop:woodwork": "yes", "website_1": "http://www.jugendring-oberlausitz.de/", "check_date:opening_hours": null, "opening_hours:signed": null, "bicycle_rental": null, "capacity": null, "service:lasercutter": null, "service:sewing_machine": null, "start_date": null, "tag": null, "contact:instagram": null, "mobile": null, "service:cnc_drilling_machine": null, "service:plotter": null, "fee": null, "phone:mobile": null, "rental": null, "wheelchair:description": null }, "geometry": { "type": "Point", "coordinates": [ 14.8225021, 51.2962056 ] } },
{ "type": "Feature", "properties": { "id": "node/5650180270", "@id": "node/5650180270", "landuse": null, "social_facility": null, "addr:city": null, "addr:country": null, "addr:housenumber": null, "addr:postcode": null, "addr:street": null, "alt_name": null, "building": null, "contact:facebook": null, "contact:phone": null, "name": "Instal", "opening_hours": null, "operator": null, "payment:cards": null, "payment:cash": null, "payment:contactless": null, "payment:credit_cards": null, "payment:debit_cards": null, "shop": "doityourself", "brand": null, "brand:wikidata": null, "building:levels": null, "phone": null, "roof:shape": null, "website": null, "wheelchair": null, "brand:wikipedia": null, "roof:levels": null, "email": null, "fax": null, "branch": null, "addr:city:simc": null, "source:addr": null, "amenity": null, "car_repair": null, "description": null, "workshop": null, "addr:suburb": null, "operator:type": null, "social_facility:for": null, "fablab": null, "leisure": null, "level": null, "service:3dprinter": null, "shop:woodwork": null, "website_1": null, "check_date:opening_hours": null, "opening_hours:signed": null, "bicycle_rental": null, "capacity": null, "service:lasercutter": null, "service:sewing_machine": null, "start_date": null, "tag": null, "contact:instagram": null, "mobile": null, "service:cnc_drilling_machine": null, "service:plotter": null, "fee": null, "phone:mobile": null, "rental": null, "wheelchair:description": null }, "geometry": { "type": "Point", "coordinates": [ 15.0145226, 51.1348075 ] } },
{ "type": "Feature", "properties": { "id": "node/6326938112", "@id": "node/6326938112", "landuse": null, "social_facility": null, "addr:city": null, "addr:country": null, "addr:housenumber": null, "addr:postcode": null, "addr:street": null, "alt_name": null, "building": null, "contact:facebook": null, "contact:phone": null, "name": "KoLaboracja", "opening_hours": null, "operator": null, "payment:cards": null, "payment:cash": null, "payment:contactless": null, "payment:credit_cards": null, "payment:debit_cards": null, "shop": null, "brand": null, "brand:wikidata": null, "building:levels": null, "phone": null, "roof:shape": null, "website": null, "wheelchair": null, "brand:wikipedia": null, "roof:levels": null, "email": null, "fax": null, "branch": null, "addr:city:simc": null, "source:addr": null, "amenity": "coworking_space", "car_repair": null, "description": null, "workshop": null, "addr:suburb": null, "operator:type": null, "social_facility:for": null, "fablab": null, "leisure": null, "level": null, "service:3dprinter": null, "shop:woodwork": null, "website_1": null, "check_date:opening_hours": "2024-04-07", "opening_hours:signed": "no", "bicycle_rental": null, "capacity": null, "service:lasercutter": null, "service:sewing_machine": null, "start_date": null, "tag": null, "contact:instagram": null, "mobile": null, "service:cnc_drilling_machine": null, "service:plotter": null, "fee": null, "phone:mobile": null, "rental": null, "wheelchair:description": null }, "geometry": { "type": "Point", "coordinates": [ 14.9815207, 51.1508919 ] } },
{ "type": "Feature", "properties": { "id": "node/8879043171", "@id": "node/8879043171", "landuse": null, "social_facility": null, "addr:city": null, "addr:country": null, "addr:housenumber": null, "addr:postcode": null, "addr:street": null, "alt_name": null, "building": null, "contact:facebook": null, "contact:phone": null, "name": "Handelshof Görlitz", "opening_hours": "Mo-Th 06:30-17:00; Fr 06:30-16:00", "operator": null, "payment:cards": null, "payment:cash": null, "payment:contactless": null, "payment:credit_cards": null, "payment:debit_cards": null, "shop": "doityourself", "brand": null, "brand:wikidata": null, "building:levels": null, "phone": null, "roof:shape": null, "website": null, "wheelchair": null, "brand:wikipedia": null, "roof:levels": null, "email": null, "fax": null, "branch": null, "addr:city:simc": null, "source:addr": null, "amenity": null, "car_repair": null, "description": null, "workshop": null, "addr:suburb": null, "operator:type": null, "social_facility:for": null, "fablab": null, "leisure": null, "level": null, "service:3dprinter": null, "shop:woodwork": null, "website_1": null, "check_date:opening_hours": "2025-04-25", "opening_hours:signed": null, "bicycle_rental": null, "capacity": null, "service:lasercutter": null, "service:sewing_machine": null, "start_date": null, "tag": null, "contact:instagram": null, "mobile": null, "service:cnc_drilling_machine": null, "service:plotter": null, "fee": null, "phone:mobile": null, "rental": null, "wheelchair:description": null }, "geometry": { "type": "Point", "coordinates": [ 14.9653391, 51.1523277 ] } },
{ "type": "Feature", "properties": { "id": "node/9175486314", "@id": "node/9175486314", "landuse": null, "social_facility": null, "addr:city": null, "addr:country": null, "addr:housenumber": null, "addr:postcode": null, "addr:street": null, "alt_name": null, "building": null, "contact:facebook": null, "contact:phone": null, "name": "Zentrum für Jugend- und Soziokultur RABRYKA", "opening_hours": null, "operator": null, "payment:cards": null, "payment:cash": null, "payment:contactless": null, "payment:credit_cards": null, "payment:debit_cards": null, "shop": null, "brand": null, "brand:wikidata": null, "building:levels": null, "phone": null, "roof:shape": null, "website": null, "wheelchair": null, "brand:wikipedia": null, "roof:levels": null, "email": null, "fax": null, "branch": null, "addr:city:simc": null, "source:addr": null, "amenity": null, "car_repair": null, "description": "rental=cargobike", "workshop": "repaircafe", "addr:suburb": null, "operator:type": null, "social_facility:for": null, "fablab": "yes", "leisure": "hackerspace", "level": null, "service:3dprinter": "yes", "shop:woodwork": "yes", "website_1": null, "check_date:opening_hours": null, "opening_hours:signed": null, "bicycle_rental": "dropoff_point", "capacity": "2", "service:lasercutter": "yes", "service:sewing_machine": "yes", "start_date": "2003", "tag": "rental=cargobike", "contact:instagram": null, "mobile": null, "service:cnc_drilling_machine": null, "service:plotter": null, "fee": null, "phone:mobile": null, "rental": null, "wheelchair:description": null }, "geometry": { "type": "Point", "coordinates": [ 14.9764905, 51.15492 ] } },
{ "type": "Feature", "properties": { "id": "node/11821214406", "@id": "node/11821214406", "landuse": null, "social_facility": null, "addr:city": "Löbau", "addr:country": null, "addr:housenumber": "2", "addr:postcode": "02708", "addr:street": "Johannisstraße", "alt_name": null, "building": null, "contact:facebook": "https://www.facebook.com/loebaulebt", "contact:phone": null, "name": "LÖBAULEBT", "opening_hours": null, "operator": "LÖBAULEBT e.V.", "payment:cards": null, "payment:cash": null, "payment:contactless": null, "payment:credit_cards": null, "payment:debit_cards": null, "shop": null, "brand": null, "brand:wikidata": null, "building:levels": null, "phone": null, "roof:shape": null, "website": "https://loebaulebt.de/", "wheelchair": null, "brand:wikipedia": null, "roof:levels": null, "email": "info@loebaulebt.de", "fax": null, "branch": null, "addr:city:simc": null, "source:addr": null, "amenity": "events_venue", "car_repair": null, "description": "LÖBAULEBT e.V. ist ein Ort für alle - Treffpunkt, Ideenfabrik, Kreativwerkstatt und Kontaktstelle - ein Ort für Teilhabe und Kultur.", "workshop": "fablab", "addr:suburb": null, "operator:type": null, "social_facility:for": null, "fablab": "yes", "leisure": "hackerspace", "level": null, "service:3dprinter": "yes", "shop:woodwork": "yes", "website_1": null, "check_date:opening_hours": null, "opening_hours:signed": null, "bicycle_rental": null, "capacity": null, "service:lasercutter": "yes", "service:sewing_machine": null, "start_date": null, "tag": null, "contact:instagram": "https://www.instagram.com/loebaulebt", "mobile": "+491796781998", "service:cnc_drilling_machine": "yes", "service:plotter": "yes", "fee": null, "phone:mobile": null, "rental": null, "wheelchair:description": null }, "geometry": { "type": "Point", "coordinates": [ 14.6676438, 51.0951345 ] } },
{ "type": "Feature", "properties": { "id": "node/11987546035", "@id": "node/11987546035", "landuse": null, "social_facility": null, "addr:city": "Görlitz", "addr:country": null, "addr:housenumber": "22", "addr:postcode": "02826", "addr:street": "Bahnhofstraße", "alt_name": null, "building": null, "contact:facebook": null, "contact:phone": null, "name": "InnoLabs", "opening_hours": null, "operator": "Jens Runge, Daniel Patzelt", "payment:cards": null, "payment:cash": null, "payment:contactless": null, "payment:credit_cards": null, "payment:debit_cards": null, "shop": null, "brand": null, "brand:wikidata": null, "building:levels": null, "phone": null, "roof:shape": null, "website": "https://innolabs-goerlitz.de", "wheelchair": null, "brand:wikipedia": null, "roof:levels": null, "email": "info@innolabs-goerlitz.de", "fax": null, "branch": null, "addr:city:simc": null, "source:addr": null, "amenity": "coworking_space", "car_repair": null, "description": null, "workshop": null, "addr:suburb": null, "operator:type": null, "social_facility:for": null, "fablab": null, "leisure": null, "level": null, "service:3dprinter": null, "shop:woodwork": null, "website_1": null, "check_date:opening_hours": null, "opening_hours:signed": null, "bicycle_rental": null, "capacity": null, "service:lasercutter": null, "service:sewing_machine": null, "start_date": null, "tag": null, "contact:instagram": null, "mobile": null, "service:cnc_drilling_machine": null, "service:plotter": null, "fee": "yes", "phone:mobile": "+49 1575 4665161", "rental": "room", "wheelchair:description": null }, "geometry": { "type": "Point", "coordinates": [ 14.977416, 51.1487626 ] } },
{ "type": "Feature", "properties": { "id": "node/13591279884", "@id": "node/13591279884", "landuse": null, "social_facility": "workshop", "addr:city": null, "addr:country": null, "addr:housenumber": null, "addr:postcode": null, "addr:street": null, "alt_name": null, "building": null, "contact:facebook": null, "contact:phone": null, "name": "Diakoniewerk Oberlausitz - Werkstatt Löbau", "opening_hours": null, "operator": "Diakoniewerk Oberlausitz gGmbH", "payment:cards": null, "payment:cash": null, "payment:contactless": null, "payment:credit_cards": null, "payment:debit_cards": null, "shop": null, "brand": "Diakonie", "brand:wikidata": "Q126501", "building:levels": null, "phone": "+49 3585 451-400", "roof:shape": null, "website": "https://diakoniewerk-oberlausitz.de/werkstaetten-und-standorte#tab-7025-5", "wheelchair": "yes", "brand:wikipedia": null, "roof:levels": null, "email": null, "fax": null, "branch": null, "addr:city:simc": null, "source:addr": null, "amenity": "social_facility", "car_repair": null, "description": null, "workshop": null, "addr:suburb": null, "operator:type": null, "social_facility:for": null, "fablab": null, "leisure": null, "level": null, "service:3dprinter": null, "shop:woodwork": null, "website_1": null, "check_date:opening_hours": null, "opening_hours:signed": null, "bicycle_rental": null, "capacity": null, "service:lasercutter": null, "service:sewing_machine": null, "start_date": null, "tag": null, "contact:instagram": null, "mobile": null, "service:cnc_drilling_machine": null, "service:plotter": null, "fee": null, "phone:mobile": null, "rental": null, "wheelchair:description": "voll" }, "geometry": { "type": "Point", "coordinates": [ 14.6707563, 51.1108613 ] } }
]
}
